{
  "norad_id": 52642,
  "name": "STARLINK-3971",
  "history": [
    {
      "epoch": "2026-03-28T13:13:11.515872Z",
      "apogee_km": 541.5366035704947,
      "perigee_km": 538.7374698952326,
      "latitude_deg": 3.860232220776449e-05,
      "longitude_deg": 150.1835895264683,
      "height_km": 540.8818988426226,
      "semi_major_axis_km": 6918.274036732863,
      "eccentricity": 0.0002023,
      "inclination_deg": 53.2174,
      "raan_deg": 174.4512,
      "arg_perigee_deg": 83.8533,
      "mean_anomaly_deg": 276.269,
      "mean_motion_rev_day": 15.08711223
    }
  ]
}